ONEWEB-0094             
1 45450U 20020AC  25291.87778035 -.00000110  00000+0 -31617-3 0  9990
2 45450  87.9110  53.8176 0001608 101.5661 258.5651 13.17646797274535
ONEWEB-0087             
1 45451U 20020AD  25291.93347307 -.00000025  00000+0 -10712-3 0  9990
2 45451  87.8839  69.0537 0001288 104.0436 256.0835 13.11414742270962
ONEWEB-0082             
1 45452U 20020AE  25291.93022303  .00000131  00000+0  33417-3 0  9990
2 45452  87.8840  69.0798 0001397 102.2622 257.8663 13.11414946271057
ONEWEB-0050             
1 45453U 20020AF  25291.87949120  .00258926  00000+0  25956-1 0  9993
2 45453  88.7475 266.2403 0006758 132.7476 227.4322 14.89904220304458
ONEWEB-0034             
1 45454U 20020AG  25291.95140673 -.00000550  00000+0 -15878-2 0  9992
2 45454  87.8831  69.0945 0001571  97.6874 262.4432 13.11417385270979
ONEWEB-0060             
1 45455U 20020AH  25291.92259479  .00000406  00000+0  11104-2 0  9991
2 45455  87.8819  69.1237 0001024 148.6150 211.5039 13.11415834270928
ONEWEB-0086             
1 45456U 20020AJ  25291.90140596  .00000229  00000+0  60953-3 0  9999
2 45456  87.8833  69.1014 0001710 123.3567 236.7725 13.11418089270984
ONEWEB-0088             
1 45457U 20020AK  25291.87936582 -.00000535  00000+0 -15459-2 0  9996
2 45457  87.8841  69.0557 0001502  94.5570 265.5730 13.11416114270913
